321P/SOHO,e,20.0549,165.0376,172.7288,2.423138,0.2612984,0.98107580,0.0000,01/17.2584/2020,2000,g 20.0,4.0
# From MPC102103
322P/SOHO,e,11.4604,351.4736,56.9307,2.508260,0.2481106,0.97977041,0.0000,08/31.4859/2019,2000,g 19.0,4.0
# From MPEC 2016-Y36
323P/SOHO,e,5.3384,324.3749,353.0511,2.582135,0.2375394,0.98484051,0.0000,01/17.7606/2021,2000,g 20.0,4.0
# From MPC108598
324P/La Sagra,e,21.4204,270.6453,57.9397,3.096491,0.1808836,0.15463600,313.8581,08/25.0/2020,2000,g 13.0,4.0
# From MPC114609
325P/Yang-Gao,e,16.6989,257.5777,343.6850,3.524090,0.1489819,0.59370766,273.4331,08/25.0/2020,2000,g 14.0,4.0
# From MPC103849
326P/Hill,e,2.4707,99.8145,278.5846,4.064392,0.1202848,0.31733905,212.8524,08/25.0/2020,2000,g 13.5,4.0
# From MPC 97499
327P/Van Ness,e,36.2443,173.9735,185.0207,3.562888,0.1465551,0.56280051,251.7546,08/25.0/2020,2000,g 16.0,4.0
# From MPC109148
328P/LONEOS-Tucker,e,17.6688,341.6220,30.4814,4.195945,0.1146725,0.55166702,195.5979,08/25.0/2020,2000,g 14.5,4.0
# From MPC101101
329P/LINEAR-Catalina,e,21.6647,87.6841,343.5521,5.192896,0.0832894,0.67685642,144.0829,08/25.0/2020,2000,g 13.5,4.0
# From MPC105243
330P/Catalina,e,15.6942,293.0958,189.0050,6.632410,0.0577028,0.54867803,84.1629,08/25.0/2020,2000,g 12.0,4.0
# From MPC110497
331P/Gibbs,e,9.7398,216.7788,183.7246,3.003322,0.1893657,0.04065815,353.2728,08/25.0/2020,2000,g 12.0,4.0
# From MPEC 2016-K18
332P/Ikeya-Murakami,e,9.3804,3.7920,152.3663,3.088281,0.1816054,0.48942379,294.9006,08/25.0/2020,2000,g 18.0,4.0
# From MPEC 2016-EI8
332P-B/Ikeya-Murakami,e,9.3805,3.8028,152.3711,3.082329,0.1821317,0.48970701,359.9699,03/17.0/2016,2000,g 19.0,4.0
# From MPEC 2016-K18
332P-C/Ikeya-Murakami,e,9.3794,3.7924,152.3575,3.088247,0.1816084,0.48942922,294.9137,08/25.0/2020,2000,g 16.5,4.0
# From MPEC 2016-ED0
332P-D/Ikeya-Murakami,e,9.3761,3.7923,152.4393,3.081138,0.1822373,0.48977814,359.9486,03/17.0/2016,2000,g 19.0,4.0
# From MPEC 2016-ED0
332P-E/Ikeya-Murakami,e,9.3774,3.8228,152.2825,3.079877,0.1823493,0.48922008,359.9889,03/17.0/2016,2000,g 21.0,4.0
# From MPEC 2016-ED0
332P-F/Ikeya-Murakami,e,9.5293,3.4757,152.8203,3.163214,0.1751908,0.49918860,359.8501,03/17.0/2016,2000,g 21.0,4.0
# From MPEC 2016-ED0
332P-G/Ikeya-Murakami,e,9.2523,3.6955,154.4000,3.050519,0.1849880,0.49200362,359.9006,03/19.0/2016,2000,g 19.0,4.0
# From MPC100285
332P-H/Ikeya-Murakami,e,9.3800,3.7921,152.3583,3.088431,0.1815923,0.48946437,294.8544,08/25.0/2020,2000,g 19.0,4.0
# From MPEC 2016-ED0
332P-I/Ikeya-Murakami,e,9.3791,3.8048,152.3297,3.081767,0.1821815,0.48955490,359.9360,03/17.0/2016,2000,g 20.5,2.0
# From MPEC 2016-EI8
332P-J/Ikeya-Murakami,e,9.4296,3.6729,152.7712,3.115165,0.1792596,0.49429435,359.8613,03/17.0/2016,2000,g 20.5,2.0
# From MPEC 2020-L06
333P/LINEAR,e,131.9822,115.6271,26.0386,4.219274,0.1137228,0.73654235,182.7362,08/25.0/2020,2000,g 15.0,4.0
# From MPC115888
334P/NEAT,e,20.4810,90.7318,89.8796,6.837413,0.0551273,0.35359300,64.6721,08/25.0/2020,2000,g 10.5,4.0
# From MPC100285
335P/Gibbs,e,7.2917,330.8432,162.2356,3.578914,0.1455718,0.54526327,255.5653,08/25.0/2020,2000,g 17.0,4.0
# From MPC105244
336P/McNaught,e,17.8341,298.2255,308.7325,5.030476,0.0873555,0.44558845,113.4650,08/25.0/2020,2000,g 13.5,4.0
# From MPC115888
337P/WISE,e,15.3738,106.0719,160.9825,3.287675,0.1653373,0.49691083,248.4055,08/25.0/2020,2000,g 17.0,4.0
# From MPC104796
338P/McNaught,e,25.3709,9.7867,4.3964,3.898275,0.1280547,0.41104513,175.6534,08/25.0/2020,2000,g 12.0,4.0
# From MPC101101
339P/Gibbs,e,5.7354,172.7460,27.5253,3.695627,0.1387304,0.63585500,207.2540,08/25.0/2020,2000,g 17.0,4.0
# From MPC102957
340P/Boattini,e,2.0797,291.7281,35.7923,4.251571,0.1124294,0.28061643,154.5084,08/25.0/2020,2000,g 13.0,4.0
# From MPC109148
341P/Gibbs,e,3.7947,29.9959,312.1137,4.294496,0.1107480,0.41512884,171.6382,08/25.0/2020,2000,g 12.5,4.0
# From MPC101101
342P/SOHO,e,11.7652,30.2476,70.8607,3.044080,0.1855752,0.98316786,0.0000,10/19.0798/2021,2000,g  9.0,4.0
# From MPC109148
343P/NEAT-LONEOS,e,5.5832,257.2345,137.3723,5.462022,0.0772101,0.58377244,100.7742,08/25.0/2020,2000,g 14.0,4.0
# From MPC109148
344P/Read,e,3.4903,273.1897,140.4069,4.867633,0.0917756,0.42149249,127.8940,08/25.0/2020,2000,g 13.0,4.0
# From MPC109148
345P/LINEAR,e,2.7266,154.4993,196.3506,4.040225,0.1213656,0.22062135,182.1033,08/25.0/2020,2000,g 12.0,4.0
# From MPC110086
346P/Catalina,e,22.1853,102.4689,336.0152,4.476613,0.1040590,0.50229927,134.0361,08/25.0/2020,2000,g 14.0,4.0
# From MPC108599
347P/PANSTARRS,e,11.7479,261.0437,98.2963,3.607168,0.1438648,0.38539143,207.5934,08/25.0/2020,2000,g 15.0,4.0
# From MPC104796
348P/PANSTARRS,e,17.7375,312.9393,135.4065,3.154159,0.1759457,0.30651053,265.6995,08/25.0/2020,2000,g 14.0,4.0
# From MPC112394
349P/Lemmon,e,5.4910,331.7482,256.0519,3.572063,0.1459907,0.29940181,159.8404,08/25.0/2020,2000,g 14.0,4.0
# From MPC111775
350P/McNaught,e,7.3563,65.3864,140.8711,4.096764,0.1188619,0.09080400,116.4412,08/25.0/2020,2000,g 14.0,4.0
# From MPC105244
351P/Wiegert-PANSTARRS,e,12.7906,283.4493,352.6278,4.436895,0.1054594,0.29612643,183.6243,08/25.0/2020,2000,g 12.5,4.0
# From MPC110086
352P/Skiff,e,21.0090,28.0991,309.1312,6.634910,0.0576702,0.61812529,66.8864,08/25.0/2020,2000,g 11.5,4.0
# From MPEC 2020-AA5
353P/McNaught,e,28.4254,121.5630,230.3717,4.171479,0.1156829,0.46987451,113.0938,08/25.0/2020,2000,g 14.5,4.0
# From MPC105545
354P/LINEAR,e,5.2555,320.1290,133.0501,2.290003,0.2844133,0.12566123,33.9981,08/25.0/2020,2000,g 15.5,4.0
# From MPEC 2020-AA5
355P/LINEAR-NEAT,e,11.0357,51.4410,336.2493,3.472691,0.1523017,0.50680631,159.5011,08/25.0/2020,2000,g 15.5,2.0
# From MPC109148
356P/WISE,e,9.6350,160.7897,226.0263,4.160902,0.1161242,0.35460660,114.0381,08/25.0/2020,2000,g 14.0,4.0
# From MPC114609
357P/Hill,e,6.3097,44.5829,1.4239,4.462063,0.1045684,0.43445551,85.6656,08/25.0/2020,2000,g 15.5,4.0
# From MPEC 2020-HN5
358P/PANSTARRS,e,11.0571,85.7154,299.7357,3.148558,0.1764154,0.23808537,152.8815,08/25.0/2020,2000,g 18.0,4.0
# From MPC110086
359P/LONEOS,e,10.2652,149.7583,200.1254,4.639461,0.0986286,0.32388676,108.4909,08/25.0/2020,2000,g 13.5,4.0
# From MPC108599
360P/WISE,e,24.0958,2.1938,354.1125,3.702986,0.1383171,0.49858613,152.4366,08/25.0/2020,2000,g 19.5,6.0
# From MPC114609
361P/Spacewatch,e,13.8870,203.2546,219.1063,4.940698,0.0897473,0.43778757,70.4403,08/25.0/2020,2000,g 12.0,4.0
# From MPEC 2017-V13
362P/,e,15.5589,192.5871,53.6836,3.967616,0.1247124,0.27988669,182.3375,08/25.0/2020,2000,g 12.9,2.0
# From MPC114609
363P/Lemmon,e,5.0319,149.6014,338.2769,3.505249,0.1501847,0.54567243,132.6905,08/25.0/2020,2000,g 17.5,4.0
# From MPC114609
364P/PANSTARRS,e,12.1460,46.2093,211.9841,2.878855,0.2017782,0.72246197,159.9330,08/25.0/2020,2000,g 17.0,2.0
# From MPC111775
365P/PANSTARRS,e,9.8362,87.4039,66.2168,3.179300,0.1738628,0.57529504,160.9509,08/25.0/2020,2000,g 17.0,4.0
# From MPC114610
366P/Spacewatch,e,8.8595,70.7542,153.1684,3.495577,0.1508085,0.34849977,115.5027,08/25.0/2020,2000,g 15.0,4.0
# From MPC112395
367P/Catalina,e,8.4635,58.7164,172.9260,3.505198,0.1501880,0.28053814,119.4984,08/25.0/2020,2000,g 17.5,2.0
# From MPC114610
368P/NEAT,e,15.4832,257.9669,118.7762,5.526561,0.0758615,0.62615571,53.9095,08/25.0/2020,2000,g 14.0,4.0
# From MPC114610
369P/Hill,e,10.3104,47.3044,13.2119,4.386034,0.1072991,0.55417287,72.9594,08/25.0/2020,2000,g 15.0,4.0
# From MPC114610
370P/NEAT,e,19.3996,55.1390,356.7008,6.436871,0.0603520,0.61435185,48.7422,08/25.0/2020,2000,g 13.0,4.0
# From MPC114610
371P/LINEAR-Skiff,e,17.3776,67.3218,308.4507,4.181389,0.1152718,0.47637582,79.5742,08/25.0/2020,2000,g 16.0,4.0
# From MPEC 2020-K19
372P/McNaught,e,9.5097,325.8192,27.1540,4.502622,0.1031587,0.15256895,69.5408,08/25.0/2020,2000,g 13.5,4.0
# From MPC114610
373P/Rinner,e,13.7588,231.9501,221.1489,3.805036,0.1327902,0.39217521,66.9371,08/25.0/2020,2000,g 14.5,4.0
# From MPC114610
374P/Larson,e,10.7605,7.9149,51.5346,4.975192,0.0888156,0.46230971,52.6079,08/25.0/2020,2000,g 14.0,4.0
# From MPC114610
375P/Hill,e,17.3616,359.9473,119.4738,5.559465,0.0751891,0.65882576,46.0694,08/25.0/2020,2000,g 16.0,4.0
# From MPEC 2020-K19
376P/LONEOS,e,1.1938,314.8336,285.2582,5.869968,0.0693028,0.51829242,22.9650,08/25.0/2020,2000,g 12.5,4.0
# From MPC115888
377P/Scotti,e,9.0224,226.0593,354.9847,6.712862,0.0566686,0.25267225,2.5246,08/25.0/2020,2000,g  9.5,4.0
# From MPEC 2019-TG9
378P/McNaught,e,19.1040,94.5174,194.0993,6.374828,0.0612352,0.46966431,356.4990,08/25.0/2020,2000,g 12.0,4.0
# From MPC115889
379P/Spacewatch,e,12.3911,183.9151,31.2430,3.528078,0.1487294,0.33909594,57.9263,08/25.0/2020,2000,g 15.0,4.0
# From MPEC 2020-KB7
380P/PANSTARRS,e,8.2608,132.9798,89.9516,4.544777,0.1017268,0.33032214,45.3200,08/25.0/2020,2000,g 12.5,4.0
# From MPEC 2019-TG9
381P/LINEAR-Spacewatch,e,28.3751,173.7847,173.1207,7.117324,0.0519074,0.68167025,17.2880,08/25.0/2020,2000,g 17.5,2.0
# From MPC115889
382P/Larson,e,7.6855,177.0594,174.2056,6.243585,0.0631761,0.29934095,322.3460,08/25.0/2020,2000,g  8.0,4.0
# From MPC118844
383P/Christensen,e,12.3213,207.8913,133.6386,3.544141,0.1477194,0.59953335,44.8717,08/25.0/2020,2000,g 18.0,4.0
# From MPEC 2020-C98
384P/Kowalski,e,7.2821,354.2263,37.6387,2.901528,0.1994178,0.61535974,63.5297,08/25.0/2020,2000,g 19.5,4.0
# From MPEC 2020-C98
385P/Hill,e,16.8268,357.0689,44.3296,4.288032,0.1109985,0.40127404,38.3185,08/25.0/2020,2000,g 13.0,4.0
# From MPEC 2020-C98
386P/PANSTARRS,e,15.2294,134.9477,353.2582,4.058323,0.1205547,0.41644105,0.6768,08/25.0/2020,2000,g 14.5,4.0
# From MPEC 2020-C98
387P/Boattini,e,8.9171,259.3353,162.7852,4.800406,0.0937102,0.73597943,33.1576,08/25.0/2020,2000,g 15.0,4.0
# From MPEC 2020-HN5
388P/Gibbs,e,23.8609,37.0485,42.3967,5.246672,0.0820122,0.61795612,32.6766,08/25.0/2020,2000,g 13.0,4.0
# From MPC118845
389P/Siding Spring,e,160.0653,218.8502,249.2880,5.626976,0.0738400,0.70444197,17.7033,08/25.0/2020,2000,g 16.0,4.0
# From MPEC 2020-C98
